[{"OBJECT_NAME":"YAOGAN-7","OBJECT_ID":"2009-069A","EPOCH":"2026-03-03T03:14:09.261888","MEAN_MOTION":14.77878934,"ECCENTRICITY":0.0025264,"INCLINATION":98.0224,"RA_OF_ASC_NODE":308.5773,"ARG_OF_PERICENTER":24.2142,"MEAN_ANOMALY":336.025,"EPHEMERIS_TYPE":0,"CLASSIFICATION_TYPE":"U","NORAD_CAT_ID":36110,"ELEMENT_SET_NO":999,"REV_AT_EPOCH":87396,"BSTAR":0.00013027,"MEAN_MOTION_DOT":8.89e-6,"MEAN_MOTION_DDOT":0},{"OBJECT_NAME":"XIWANG-1 (HOPE-1)","OBJECT_ID":"2009-072B","EPOCH":"2026-03-03T03:34:37.619328","MEAN_MOTION":13.1643707,"ECCENTRICITY":0.0008039,"INCLINATION":100.39,"RA_OF_ASC_NODE":17.7346,"ARG_OF_PERICENTER":113.5613,"MEAN_ANOMALY":246.6345,"EPHEMERIS_TYPE":0,"CLASSIFICATION_TYPE":"U","NORAD_CAT_ID":36122,"ELEMENT_SET_NO":999,"REV_AT_EPOCH":77905,"BSTAR":0.00093977,"MEAN_MOTION_DOT":3.15e-6,"MEAN_MOTION_DDOT":0},{"OBJECT_NAME":"RADUGA-1M 2","OBJECT_ID":"2010-002A","EPOCH":"2026-03-03T03:35:38.592672","MEAN_MOTION":0.98964087,"ECCENTRICITY":0.0008558,"INCLINATION":3.3446,"RA_OF_ASC_NODE":80.1908,"ARG_OF_PERICENTER":248.3904,"MEAN_ANOMALY":333.0769,"EPHEMERIS_TYPE":0,"CLASSIFICATION_TYPE":"U","NORAD_CAT_ID":36358,"ELEMENT_SET_NO":999,"REV_AT_EPOCH":4897,"BSTAR":0,"MEAN_MOTION_DOT":-7.0e-8,"MEAN_MOTION_DDOT":0},{"OBJECT_NAME":"COSMOS 2463","OBJECT_ID":"2010-017A","EPOCH":"2026-03-03T03:18:17.707680","MEAN_MOTION":13.71657208,"ECCENTRICITY":0.0037417,"INCLINATION":82.9641,"RA_OF_ASC_NODE":327.6438,"ARG_OF_PERICENTER":65.1521,"MEAN_ANOMALY":45.3967,"EPHEMERIS_TYPE":0,"CLASSIFICATION_TYPE":"U","NORAD_CAT_ID":36519,"ELEMENT_SET_NO":999,"REV_AT_EPOCH":79339,"BSTAR":6.1473e-5,"MEAN_MOTION_DOT":7.1e-7,"MEAN_MOTION_DDOT":0},{"OBJECT_NAME":"CARTOSAT-2B","OBJECT_ID":"2010-035A","EPOCH":"2026-03-03T03:57:47.130048","MEAN_MOTION":14.78693355,"ECCENTRICITY":0.0011575,"INCLINATION":97.8459,"RA_OF_ASC_NODE":113.5909,"ARG_OF_PERICENTER":169.6117,"MEAN_ANOMALY":190.5336,"EPHEMERIS_TYPE":0,"CLASSIFICATION_TYPE":"U","NORAD_CAT_ID":36795,"ELEMENT_SET_NO":999,"REV_AT_EPOCH":84418,"BSTAR":6.6661e-5,"MEAN_MOTION_DOT":4.39e-6,"MEAN_MOTION_DDOT":0},{"OBJECT_NAME":"AISSAT 1","OBJECT_ID":"2010-035C","EPOCH":"2026-03-03T03:24:11.705760","MEAN_MOTION":14.96848593,"ECCENTRICITY":0.0010459,"INCLINATION":98.1048,"RA_OF_ASC_NODE":317.6236,"ARG_OF_PERICENTER":53.0064,"MEAN_ANOMALY":307.2112,"EPHEMERIS_TYPE":0,"CLASSIFICATION_TYPE":"U","NORAD_CAT_ID":36797,"ELEMENT_SET_NO":999,"REV_AT_EPOCH":84835,"BSTAR":0.00023442,"MEAN_MOTION_DOT":2.626e-5,"MEAN_MOTION_DDOT":0},{"OBJECT_NAME":"TISAT 1","OBJECT_ID":"2010-035E","EPOCH":"2026-03-02T19:30:32.106240","MEAN_MOTION":15.27224236,"ECCENTRICITY":1.797e-5,"INCLINATION":98.0646,"RA_OF_ASC_NODE":359.347,"ARG_OF_PERICENTER":143.8613,"MEAN_ANOMALY":216.2636,"EPHEMERIS_TYPE":0,"CLASSIFICATION_TYPE":"U","NORAD_CAT_ID":36799,"ELEMENT_SET_NO":999,"REV_AT_EPOCH":85144,"BSTAR":0.00096803535,"MEAN_MOTION_DOT":0.0002581,"MEAN_MOTION_DDOT":0},{"OBJECT_NAME":"YAOGAN-10","OBJECT_ID":"2010-038A","EPOCH":"2026-03-03T05:44:42.171936","MEAN_MOTION":14.84985123,"ECCENTRICITY":0.0001732,"INCLINATION":97.9086,"RA_OF_ASC_NODE":86.4604,"ARG_OF_PERICENTER":90.8193,"MEAN_ANOMALY":335.4425,"EPHEMERIS_TYPE":0,"CLASSIFICATION_TYPE":"U","NORAD_CAT_ID":36834,"ELEMENT_SET_NO":999,"REV_AT_EPOCH":84148,"BSTAR":0.00040551,"MEAN_MOTION_DOT":3.404e-5,"MEAN_MOTION_DDOT":0},{"OBJECT_NAME":"SHIJIAN-6 04B (SJ-6 04B)","OBJECT_ID":"2010-051B","EPOCH":"2026-03-03T04:02:36.867264","MEAN_MOTION":14.99100165,"ECCENTRICITY":0.0008862,"INCLINATION":97.8743,"RA_OF_ASC_NODE":66.4888,"ARG_OF_PERICENTER":320.5249,"MEAN_ANOMALY":39.5327,"EPHEMERIS_TYPE":0,"CLASSIFICATION_TYPE":"U","NORAD_CAT_ID":37180,"ELEMENT_SET_NO":999,"REV_AT_EPOCH":83979,"BSTAR":0.00017745,"MEAN_MOTION_DOT":2.095e-5,"MEAN_MOTION_DDOT":0},{"OBJECT_NAME":"FENGYUN 3B","OBJECT_ID":"2010-059A","EPOCH":"2026-03-03T05:29:07.285920","MEAN_MOTION":14.14814579,"ECCENTRICITY":0.0022964,"INCLINATION":98.9784,"RA_OF_ASC_NODE":107.726,"ARG_OF_PERICENTER":125.5929,"MEAN_ANOMALY":314.2137,"EPHEMERIS_TYPE":0,"CLASSIFICATION_TYPE":"U","NORAD_CAT_ID":37214,"ELEMENT_SET_NO":999,"REV_AT_EPOCH":79244,"BSTAR":-6.0657e-5,"MEAN_MOTION_DOT":-1.62e-6,"MEAN_MOTION_DDOT":0},{"OBJECT_NAME":"COSMO-SKYMED 4","OBJECT_ID":"2010-060A","EPOCH":"2026-03-03T04:22:19.921728","MEAN_MOTION":14.82150033,"ECCENTRICITY":0.0001358,"INCLINATION":97.8854,"RA_OF_ASC_NODE":247.3125,"ARG_OF_PERICENTER":84.2289,"MEAN_ANOMALY":275.9079,"EPHEMERIS_TYPE":0,"CLASSIFICATION_TYPE":"U","NORAD_CAT_ID":37216,"ELEMENT_SET_NO":999,"REV_AT_EPOCH":82886,"BSTAR":3.2114e-5,"MEAN_MOTION_DOT":2.03e-6,"MEAN_MOTION_DDOT":0},{"OBJECT_NAME":"O/OREOS (USA 219)","OBJECT_ID":"2010-062C","EPOCH":"2026-03-03T02:23:20.798592","MEAN_MOTION":14.93236806,"ECCENTRICITY":0.001693,"INCLINATION":71.9727,"RA_OF_ASC_NODE":320.5587,"ARG_OF_PERICENTER":267.7511,"MEAN_ANOMALY":92.1721,"EPHEMERIS_TYPE":0,"CLASSIFICATION_TYPE":"U","NORAD_CAT_ID":37224,"ELEMENT_SET_NO":999,"REV_AT_EPOCH":10080,"BSTAR":0.00029097,"MEAN_MOTION_DOT":2.99e-5,"MEAN_MOTION_DDOT":0},{"OBJECT_NAME":"ELEKTRO-L 1 (GOMS 2)","OBJECT_ID":"2011-001A","EPOCH":"2026-03-02T20:37:44.981760","MEAN_MOTION":1.00174747,"ECCENTRICITY":0.0003189,"INCLINATION":9.4457,"RA_OF_ASC_NODE":55.5723,"ARG_OF_PERICENTER":9.8812,"MEAN_ANOMALY":335.3496,"EPHEMERIS_TYPE":0,"CLASSIFICATION_TYPE":"U","NORAD_CAT_ID":37344,"ELEMENT_SET_NO":999,"REV_AT_EPOCH":5541,"BSTAR":0,"MEAN_MOTION_DOT":-2.77e-6,"MEAN_MOTION_DDOT":0},{"OBJECT_NAME":"RESOURCESAT-2","OBJECT_ID":"2011-015A","EPOCH":"2026-03-03T03:59:08.390976","MEAN_MOTION":14.21489972,"ECCENTRICITY":0.0006217,"INCLINATION":98.7733,"RA_OF_ASC_NODE":130.2943,"ARG_OF_PERICENTER":156.0762,"MEAN_ANOMALY":204.0705,"EPHEMERIS_TYPE":0,"CLASSIFICATION_TYPE":"U","NORAD_CAT_ID":37387,"ELEMENT_SET_NO":999,"REV_AT_EPOCH":77111,"BSTAR":-7.0904e-5,"MEAN_MOTION_DOT":-1.99e-6,"MEAN_MOTION_DDOT":0},{"OBJECT_NAME":"YOUTHSAT","OBJECT_ID":"2011-015B","EPOCH":"2026-03-02T23:12:30.115008","MEAN_MOTION":14.25577401,"ECCENTRICITY":0.0013419,"INCLINATION":98.3581,"RA_OF_ASC_NODE":40.8717,"ARG_OF_PERICENTER":296.4152,"MEAN_ANOMALY":133.4602,"EPHEMERIS_TYPE":0,"CLASSIFICATION_TYPE":"U","NORAD_CAT_ID":37388,"ELEMENT_SET_NO":999,"REV_AT_EPOCH":77250,"BSTAR":0.00013894,"MEAN_MOTION_DOT":2.88e-6,"MEAN_MOTION_DDOT":0},{"OBJECT_NAME":"APRIZESAT 6","OBJECT_ID":"2011-044F","EPOCH":"2026-03-02T16:55:41.205792","MEAN_MOTION":14.76733859,"ECCENTRICITY":0.00445321,"INCLINATION":98.2424,"RA_OF_ASC_NODE":330.0133,"ARG_OF_PERICENTER":67.2556,"MEAN_ANOMALY":346.7978,"EPHEMERIS_TYPE":0,"CLASSIFICATION_TYPE":"U","NORAD_CAT_ID":37793,"ELEMENT_SET_NO":999,"REV_AT_EPOCH":78143,"BSTAR":0.00016930863,"MEAN_MOTION_DOT":1.149e-5,"MEAN_MOTION_DDOT":0},{"OBJECT_NAME":"JUGNU","OBJECT_ID":"2011-058B","EPOCH":"2026-03-02T19:16:44.957568","MEAN_MOTION":14.13737032,"ECCENTRICITY":0.0018632,"INCLINATION":19.9596,"RA_OF_ASC_NODE":234.7346,"ARG_OF_PERICENTER":341.6497,"MEAN_ANOMALY":143.8293,"EPHEMERIS_TYPE":0,"CLASSIFICATION_TYPE":"U","NORAD_CAT_ID":37839,"ELEMENT_SET_NO":999,"REV_AT_EPOCH":74395,"BSTAR":0.00012266189,"MEAN_MOTION_DOT":5.02e-6,"MEAN_MOTION_DDOT":0}]
